NORAD_CAT_ID,OBJECT_NAME,OBJECT_TYPE,EPOCH,MEAN_MOTION,ECCENTRICITY,INCLINATION,RA_OF_ASC_NODE,ARG_OF_PERICENTER,MEAN_ANOMALY,BSTAR,MEAN_MOTION_DOT,MEAN_MOTION_DDOT,TLE_LINE0,TLE_LINE1,TLE_LINE2,SEMIMAJOR_AXIS,PERIOD,APOGEE,PERIGEE,DECAYED
53790.0,STARLINK-4734,PAYLOAD,2023-12-24 06:07:24,15.08834653,0.0001505,53.2178,294.2222,98.168,261.9483,4.454e-05,4.21e-06,0.0,0 STARLINK-4734,1 53790U 22111T   23358.25514407  .00000421  00000-0  44540-4 0  9998,2 53790  53.2178 294.2222 0001505  98.1680 261.9483 15.08834653 71956,6917.897,95.438,540.803,538.721,0.0
53790.0,STARLINK-4734,PAYLOAD,2023-12-24 18:50:30,15.08831547,0.0001429,53.2168,291.8423,130.0614,230.0504,-4.8808e-05,-1.064e-05,0.0,0 STARLINK-4734,1 53790U 22111T   23358.78507085 -.00001064  00000-0 -48808-4 0  9997,2 53790  53.2168 291.8423 0001429 130.0614 230.0504 15.08831547 71229,6917.906,95.438,540.76,538.783,0.0
53790.0,STARLINK-4734,PAYLOAD,2023-12-25 02:47:25,15.08842589,0.0001621,53.2182,290.3643,98.3601,261.7575,5.3763e-05,5.68e-06,0.0,0 STARLINK-4734,1 53790U 22111T   23359.11626357  .00000568  00000-0  53763-4 0  9991,2 53790  53.2182 290.3643 0001621  98.3601 261.7575 15.08842589 71271,6917.872,95.437,540.859,538.616,0.0
53790.0,STARLINK-4734,PAYLOAD,2023-12-25 04:22:48,15.08846866,0.000161,53.2189,290.0676,86.3841,273.7335,0.0001028,1.349e-05,0.0,0 STARLINK-4734,1 53790U 22111T   23359.18250036  .00001349  00000-0  10280-3 0  9999,2 53790  53.2189 290.0676 0001610  86.3841 273.7335 15.08846866 72092,6917.859,95.437,540.838,538.611,0.0
53790.0,STARLINK-4734,PAYLOAD,2023-12-25 20:16:40,15.08836383,0.0001485,53.2173,287.0881,87.2207,272.8955,3.919e-05,3.36e-06,0.0,0 STARLINK-4734,1 53790U 22111T   23359.84490973  .00000336  00000-0  39190-4 0  9995,2 53790  53.2173 287.0881 0001485  87.2207 272.8955 15.08836383 71387,6917.891,95.438,540.784,538.729,0.0
53790.0,STARLINK-4734,PAYLOAD,2023-12-26 04:13:35,15.08842589,0.0001406,53.2174,285.6026,86.3897,273.7256,6.8404e-05,8.01e-06,0.0,0 STARLINK-4734,1 53790U 22111T   23360.17610594  .00000801  00000-0  68404-4 0  9993,2 53790  53.2174 285.6026 0001406  86.3897 273.7256 15.08842589 72246,6917.872,95.437,540.71,538.765,0.0
53790.0,STARLINK-4734,PAYLOAD,2023-12-27 02:28:59,15.08848165,0.0001492,53.2173,281.4404,81.6634,278.4527,3.9136e-05,3.35e-06,0.0,0 STARLINK-4734,1 53790U 22111T   23361.10346573  .00000335  00000-0  39136-4 0  9992,2 53790  53.2173 281.4404 0001492  81.6634 278.4527 15.08848165 72385,6917.855,95.437,540.753,538.688,0.0
53790.0,STARLINK-4734,PAYLOAD,2023-12-27 18:22:51,15.08840026,0.0001408,53.2175,278.4691,84.0937,276.0216,5.7473e-05,6.27e-06,0.0,0 STARLINK-4734,1 53790U 22111T   23361.76587139  .00000627  00000-0  57473-4 0  9997,2 53790  53.2175 278.4691 0001408  84.0937 276.0216 15.08840026 71679,6917.88,95.438,540.719,538.771,0.0
53790.0,STARLINK-4734,PAYLOAD,2023-12-28 03:55:09,15.08844527,0.0001419,53.2175,276.6837,90.0838,270.0317,0.00010187,1.334e-05,0.0,0 STARLINK-4734,1 53790U 22111T   23362.16330484  .00001334  00000-0  10187-3 0  9997,2 53790  53.2175 276.6837 0001419  90.0838 270.0317 15.08844527 71733,6917.867,95.437,540.713,538.75,0.0
53790.0,STARLINK-4734,PAYLOAD,2023-12-29 03:45:56,15.08847818,0.000151,53.2169,272.2182,95.1908,264.9256,-3.0655e-06,-3.37e-06,0.0,0 STARLINK-4734,1 53790U 22111T   23363.15690474 -.00000337  00000-0 -30655-5 0  9993,2 53790  53.2169 272.2182 0001510  95.1908 264.9256 15.08847818 72693,6917.856,95.437,540.766,538.677,0.0
53790.0,STARLINK-4734,PAYLOAD,2023-12-29 21:15:11,15.08841939,0.0001827,53.2164,268.9455,124.7599,235.3565,4.6866e-06,-2.14e-06,0.0,0 STARLINK-4734,1 53790U 22111T   23363.88554738 -.00000214  00000-0  46866-5 0  9999,2 53790  53.2164 268.9455 0001827 124.7599 235.3565 15.08841939 72805,6917.874,95.437,541.003,538.476,0.0
53790.0,STARLINK-4734,PAYLOAD,2023-12-30 03:36:43,15.08845731,0.000172,53.2179,267.757,122.4581,237.6578,7.7077e-06,-1.65e-06,0.0,0 STARLINK-4734,1 53790U 22111T   23364.15050481 -.00000165  00000-0  77077-5 0  9999,2 53790  53.2179 267.7570 0001720 122.4581 237.6578 15.08845731 72032,6917.863,95.437,540.918,538.538,0.0
53790.0,STARLINK-4734,PAYLOAD,2023-12-30 17:55:12,15.08815764,0.0001813,53.2178,265.0797,105.102,255.0173,0.00029618,4.426e-05,0.0,0 STARLINK-4734,1 53790U 22111T   23364.74667208  .00004426  00000-0  29618-3 0  9994,2 53790  53.2178 265.0797 0001813 105.1020 255.0173 15.08815764 72120,6917.954,95.439,541.074,538.565,0.0
53790.0,STARLINK-4734,PAYLOAD,2023-12-30 22:41:21,15.08842037,0.0001552,53.2159,264.191,114.5409,245.5745,1.0303e-05,-1.24e-06,0.0,0 STARLINK-4734,1 53790U 22111T   23364.94538720 -.00000124  00000-0  10303-4 0  9996,2 53790  53.2159 264.1910 0001552 114.5409 245.5745 15.08842037 72965,6917.874,95.437,540.813,538.666,0.0
53790.0,STARLINK-4734,PAYLOAD,2023-12-31 03:27:30,15.08844767,0.0001413,53.2161,263.3008,102.6642,257.4508,1.8401e-05,5e-08,0.0,0 STARLINK-4734,1 53790U 22111T   23365.14410559  .00000005  00000-0  18401-4 0  9992,2 53790  53.2161 263.3008 0001413 102.6642 257.4508 15.08844767 72185,6917.866,95.437,540.708,538.753,0.0
53790.0,STARLINK-4734,PAYLOAD,2023-12-31 22:32:09,15.088379,0.0001415,53.216,259.7317,102.6045,257.5106,-4.1483e-05,-9.48e-06,0.0,0 STARLINK-4734,1 53790U 22111T   23365.93899403 -.00000948  00000-0 -41483-4 0  9992,2 53790  53.2160 259.7317 0001415 102.6045 257.5106 15.08837900 73115,6917.887,95.438,540.731,538.773,0.0
53790.0,STARLINK-4734,PAYLOAD,2024-01-01 22:22:55,15.08843263,0.0001334,53.2156,255.2735,91.5342,268.5803,8.0764e-05,9.98e-06,0.0,0 STARLINK-4734,1 53790U 22111T   24001.93258836  .00000998  00000-0  80764-4 0  9997,2 53790  53.2156 255.2735 0001334  91.5342 268.5803 15.08843263 72452,6917.87,95.437,540.658,538.813,0.0
53790.0,STARLINK-4734,PAYLOAD,2024-01-02 22:13:43,15.08839445,0.0001302,53.2152,250.8138,86.0302,274.0839,4.3892e-05,4.11e-06,0.0,0 STARLINK-4734,1 53790U 22111T   24002.92619242  .00000411  00000-0  43892-4 0  9990,2 53790  53.2152 250.8138 0001302  86.0302 274.0839 15.08839445 73411,6917.882,95.438,540.648,538.846,0.0
53790.0,STARLINK-4734,PAYLOAD,2024-01-03 01:24:29,15.08840346,0.0001316,53.2152,250.2189,86.1365,273.9778,4.9662e-05,5.03e-06,0.0,0 STARLINK-4734,1 53790U 22111T   24003.05867160  .00000503  00000-0  49662-4 0  9992,2 53790  53.2152 250.2189 0001316  86.1365 273.9778 15.08840346 72620,6917.879,95.438,540.655,538.834,0.0
53790.0,STARLINK-4734,PAYLOAD,2024-01-03 22:04:30,15.08838919,0.0001388,53.2152,246.3533,82.8405,277.2745,5.5194e-06,-2e-06,0.0,0 STARLINK-4734,1 53790U 22111T   24003.91979459 -.00000200  00000-0  55194-5 0  9995,2 53790  53.2152 246.3533 0001388  82.8405 277.2745 15.08838919 73564,6917.884,95.438,540.709,538.788,0.0
53790.0,STARLINK-4734,PAYLOAD,2024-01-04 01:15:16,15.08844715,0.0001458,53.2156,245.7576,84.9199,275.196,3.9492e-05,3.41e-06,0.0,0 STARLINK-4734,1 53790U 22111T   24004.05226967  .00000341  00000-0  39492-4 0  9997,2 53790  53.2156 245.7576 0001458  84.9199 275.1960 15.08844715 73588,6917.866,95.437,540.74,538.722,0.0
53790.0,STARLINK-4734,PAYLOAD,2024-01-04 20:19:54,15.08836259,0.0001583,53.2163,242.1859,82.3866,277.7306,2.7928e-05,1.56e-06,0.0,0 STARLINK-4734,1 53790U 22111T   24004.84715570  .00000156  00000-0  27928-4 0  9992,2 53790  53.2163 242.1859 0001583  82.3866 277.7306 15.08836259 72892,6917.892,95.438,540.852,538.662,0.0
53790.0,STARLINK-4734,PAYLOAD,2024-01-04 21:55:17,15.08837931,0.0001624,53.2161,241.8888,80.9659,279.1517,4.4579e-05,4.21e-06,0.0,0 STARLINK-4734,1 53790U 22111T   24004.91339442  .00000421  00000-0  44579-4 0  9996,2 53790  53.2161 241.8888 0001624  80.9659 279.1517 15.08837931 73718,6917.887,95.438,540.875,538.628,0.0
53790.0,STARLINK-4734,PAYLOAD,2024-01-05 21:46:04,15.08843721,0.0001484,53.2151,237.4302,90.7778,269.3384,4.458e-05,4.22e-06,0.0,0 STARLINK-4734,1 53790U 22111T   24005.90699100  .00000422  00000-0  44580-4 0  9999,2 53790  53.2151 237.4302 0001484  90.7778 269.3384 15.08843721 73867,6917.869,95.437,540.761,538.707,0.0
53790.0,STARLINK-4734,PAYLOAD,2024-01-06 20:01:28,15.08839307,0.0001497,53.2147,233.2684,81.9209,278.1953,2.7786e-05,1.54e-06,0.0,0 STARLINK-4734,1 53790U 22111T   24006.83435487  .00000154  00000-0  27786-4 0  9999,2 53790  53.2147 233.2684 0001497  81.9209 278.1953 15.08839307 73195,6917.883,95.438,540.783,538.712,0.0
53790.0,STARLINK-4734,PAYLOAD,2024-01-06 21:36:51,15.08839791,0.0001505,53.2147,232.971,82.2111,277.9052,3.0757e-05,2.02e-06,0.0,0 STARLINK-4734,1 53790U 22111T   24006.90059423  .00000202  00000-0  30757-4 0  9995,2 53790  53.2147 232.9710 0001505  82.2111 277.9052 15.08839791 74013,6917.881,95.438,540.787,538.705,0.0
53790.0,STARLINK-4734,PAYLOAD,2024-01-07 15:06:06,15.0883687,0.0001552,53.2148,229.6995,80.0472,280.0695,-4.1682e-06,-3.54e-06,0.0,0 STARLINK-4734,1 53790U 22111T   24007.62923864 -.00000354  00000-0 -41682-5 0  9994,2 53790  53.2148 229.6995 0001552  80.0472 280.0695 15.08836870 74125,6917.89,95.438,540.829,538.681,0.0
53790.0,STARLINK-4734,PAYLOAD,2024-01-07 21:27:38,15.08836752,0.000153,53.215,228.5091,85.8678,274.2489,-1.5686e-05,-5.38e-06,0.0,0 STARLINK-4734,1 53790U 22111T   24007.89419893 -.00000538  00000-0 -15686-4 0  9993,2 53790  53.2150 228.5091 0001530  85.8678 274.2489 15.08836752 74169,6917.89,95.438,540.814,538.697,0.0
53790.0,STARLINK-4734,PAYLOAD,2024-01-08 19:43:02,15.08837992,0.0001567,53.2158,224.3439,97.5105,262.6065,4.8075e-05,4.77e-06,0.0,0 STARLINK-4734,1 53790U 22111T   24008.82155654  .00000477  00000-0  48075-4 0  9997,2 53790  53.2158 224.3439 0001567  97.5105 262.6065 15.08837992 74306,6917.887,95.438,540.836,538.667,0.0
53790.0,STARLINK-4734,PAYLOAD,2024-01-09 00:29:11,15.08838119,0.0001575,53.2158,223.4526,98.3713,261.7457,4.6201e-05,4.47e-06,0.0,0 STARLINK-4734,1 53790U 22111T   24009.02027686  .00000447  00000-0  46201-4 0  9999,2 53790  53.2158 223.4526 0001575  98.3713 261.7457 15.08838119 73526,6917.886,95.438,540.841,538.662,0.0
